{
    "links": {
        "self": "http://www.neowsapp.com/rest/v1/neo/3439482?api_key=iIulBulltgU6a56xZRHN4H3l9WmuAYTsLGpBGhQ2"
    },
    "id": "3439482",
    "neo_reference_id": "3439482",
    "name": "(2008 WQ1)",
    "designation": "2008 WQ1",
    "nasa_jpl_url": "http://ssd.jpl.nasa.gov/sbdb.cgi?sstr=3439482",
    "absolute_magnitude_h": 21.6,
    "estimated_diameter": {
        "kilometers": {
            "estimated_diameter_min": 0.1272198785,
            "estimated_diameter_max": 0.2844722965
        },
        "meters": {
            "estimated_diameter_min": 127.2198785394,
            "estimated_diameter_max": 284.4722965033
        },
        "miles": {
            "estimated_diameter_min": 0.0790507431,
            "estimated_diameter_max": 0.1767628354
        },
        "feet": {
            "estimated_diameter_min": 417.3880663071,
            "estimated_diameter_max": 933.3080892598
        }
    },
    "is_potentially_hazardous_asteroid": false,
    "close_approach_data": [
        {
            "close_approach_date": "2008-11-16",
            "close_approach_date_full": "2008-Nov-16 03:29",
            "epoch_date_close_approach": 1226806140000,
            "relative_velocity": {
                "kilometers_per_second": "22.1648542375",
                "kilometers_per_hour": "79793.4752549496",
                "miles_per_hour": "49580.5624438324"
            },
            "miss_distance": {
                "astronomical": "0.1417534895",
                "lunar": "55.1421074155",
                "kilometers": "21206020.094267365",
                "miles": "13176809.869785037"
            },
            "orbiting_body": "Earth"
        }
    ],
    "orbital_data": {
        "orbit_id": "10",
        "orbit_determination_date": "2017-04-06 09:02:10",
        "first_observation_date": "2008-11-19",
        "last_observation_date": "2008-11-25",
        "data_arc_in_days": 6,
        "observations_used": 17,
        "orbit_uncertainty": "9",
        "minimum_orbit_intersection": ".0851001",
        "jupiter_tisserand_invariant": "2.884",
        "epoch_osculation": "2454791.5",
        "eccentricity": ".6056201693406464",
        "semi_major_axis": "2.669765364054304",
        "inclination": "34.93245885266569",
        "ascending_node_longitude": "230.550895032452",
        "orbital_period": "1593.338567604646",
        "perihelion_distance": "1.052901612175944",
        "perihelion_argument": "160.0783080601972",
        "aphelion_distance": "4.286629115932665",
        "perihelion_time": "2454772.139735232074",
        "mean_anomaly": "4.374271393512609",
        "mean_motion": ".2259406803547145",
        "equinox": "J2000",
        "orbit_class": {
            "orbit_class_type": "AMO",
            "orbit_class_description": "Near-Earth asteroid orbits similar to that of 1221 Amor",
            "orbit_class_range": "1.017 AU < q (perihelion) < 1.3 AU"
        }
    },
    "is_sentry_object": false
}